{"type": "FeatureCollection", "features": [{"type": "Feature", "id": "AA.AAA", "properties": {"code": "AAA", "name": "Station AA.AAA", "instrumentType": "UNK", "source": "AA", "network": "AA", "commType": "UNK", "location": "", "intensity": 9.6, "intensity_flag": "", "intensity_stddev": 0.63, "pga": 271.8282, "pgv": 148.4132, "distance": 36.789, "elev": null, "vs30": 431.0, "channels": [{"name": "--.HNE", "amplitudes": [{"name": "pga", "value": 271.8282, "units": "%g", "flag": "0", "ln_sigma": 0.0}, {"name": "pgv", "value": 148.4132, "units": "cm/s", "flag": "0", "ln_sigma": 0.0}, {"name": "sa(1.0)", "value": 164.8721, "units": "%g", "flag": "0", "ln_sigma": 0.0}]}, {"name": "--.HNN", "amplitudes": [{"name": "pga", "value": 271.8282, "units": "%g", "flag": "0", "ln_sigma": 0.0}, {"name": "pgv", "value": 148.4132, "units": "cm/s", "flag": "0", "ln_sigma": 0.0}, {"name": "sa(1.0)", "value": 164.8721, "units": "%g", "flag": "0", "ln_sigma": 0.0}]}, {"name": "--.HNZ", "amplitudes": [{"name": "pga", "value": 100.0, "units": "%g", "flag": "0", "ln_sigma": 0.0}, {"name": "pgv", "value": 148.4132, "units": "cm/s", "flag": "0", "ln_sigma": 0.0}, {"name": "sa(1.0)", "value": 164.8721, "units": "%g", "flag": "0", "ln_sigma": 0.0}]}], "station_type": "seismic", "nresp": "null", "predictions": [{"name": "sa(1.0)", "value": 100.0, "value_rock": 100.0, "value_soil": 100.0, "units": "%g", "ln_tau": 0.6, "ln_phi": 0.8, "ln_sigma": 1.0, "ln_sigma_rock": 1.0, "ln_sigma_soil": 1.0, "ln_bias": 0.18, "ln_bias_sigma": 0.48}, {"name": "pgv", "value": 1.0, "value_rock": 1.0, "value_soil": 1.0, "units": "cm/s", "ln_tau": 0.6, "ln_phi": 0.8, "ln_sigma": 1.0, "ln_sigma_rock": 1.0, "ln_sigma_soil": 1.0, "ln_bias": 1.8, "ln_bias_sigma": 0.48}, {"name": "pga", "value": 100.0, "value_rock": 100.0, "value_soil": 100.0, "units": "%g", "ln_tau": 0.6, "ln_phi": 0.8, "ln_sigma": 1.0, "ln_sigma_rock": 1.0, "ln_sigma_soil": 1.0, "ln_bias": 0.36, "ln_bias_sigma": 0.48}, {"name": "mmi", "value": 5.4329, "value_rock": 5.4329, "value_soil": 5.4329, "units": "intensity", "tau": 0.4714, "phi": 0.7158, "sigma": 0.8571, "sigma_rock": 0.8571, "sigma_soil": 0.8571, "bias": 0.8129, "bias_sigma": 0.4226}], "mmi_from_pgm": [{"name": "sa(1.0)", "value": 9.27, "sigma": 0.75, "flag": "0"}, {"name": "pgv", "value": 9.57, "sigma": 0.63, "flag": "0"}, {"name": "pga", "value": 10.0, "sigma": 0.66, "flag": "0"}], "distance_stddev": 0.0, "distances": {"repi": 0.0, "rhypo": 5.0, "rjb": 36.74, "rjb_var": 0.0, "rrup": 36.789, "rrup_var": 0.0}}, "geometry": {"type": "Point", "coordinates": [-122.0, 38.0]}}], "metadata": {"eventid": "integration_test_0001"}}